[{"OBJECT_NAME":"STARLINK-30308","OBJECT_ID":"2023-131L","EPOCH":"2026-03-09T22:00:01.999584","MEAN_MOTION":15.12979471,"ECCENTRICITY":7.615e-5,"INCLINATION":43.0002,"RA_OF_ASC_NODE":170.4619,"ARG_OF_PERICENTER":239.0117,"MEAN_ANOMALY":330.2369,"EPHEMERIS_TYPE":0,"CLASSIFICATION_TYPE":"U","NORAD_CAT_ID":57742,"ELEMENT_SET_NO":999,"REV_AT_EPOCH":578,"BSTAR":0.074115533,"MEAN_MOTION_DOT":0.01457987,"MEAN_MOTION_DDOT":0},{"OBJECT_NAME":"FLOCK 4H-22","OBJECT_ID":"2025-276BM","EPOCH":"2026-03-09T17:55:05.442528","MEAN_MOTION":15.18837186,"ECCENTRICITY":0.00032107,"INCLINATION":97.4241,"RA_OF_ASC_NODE":143.9598,"ARG_OF_PERICENTER":42.7881,"MEAN_ANOMALY":317.3603,"EPHEMERIS_TYPE":0,"CLASSIFICATION_TYPE":"U","NORAD_CAT_ID":66725,"ELEMENT_SET_NO":999,"REV_AT_EPOCH":1532,"BSTAR":0.00043673882,"MEAN_MOTION_DOT":9.034e-5,"MEAN_MOTION_DDOT":0}]
